SWAS                    
1 25560U 98071A   26068.53487068  .00004636  00000+0  29986-3 0  9991
2 25560  69.8952 124.3662 0004099  14.3215 345.8065 15.08888192482231
STARLINK-3576           
1 51883U 22022AH  26068.18847517 -.00000088  00000+0  12565-4 0  9995
2 51883  53.2199   1.5536 0001460  93.4769 266.6390 15.08833975223160
